CCSDS_OMM_VERS = 2.0
CREATION_DATE  = 
ORIGINATOR     = 

OBJECT_NAME    = STARLINK-35832
OBJECT_ID      = 2025-263L
CENTER_NAME    = EARTH
REF_FRAME      = TEME
TIME_SYSTEM    = UTC
MEAN_ELEMENT_THEORY = SGP/SGP4

EPOCH          = 2025-11-30T20:00:03.000384
MEAN_MOTION    = 15.75144154
ECCENTRICITY   = .0001588
INCLINATION    = 42.9986
RA_OF_ASC_NODE = 195.7614
ARG_OF_PERICENTER = 277.8968
MEAN_ANOMALY   = 32.1658

EPHEMERIS_TYPE = 0
CLASSIFICATION_TYPE = U
NORAD_CAT_ID   = 66495
ELEMENT_SET_NO = 999
REV_AT_EPOCH   = 372
BSTAR          = -.10761E-2
MEAN_MOTION_DOT = -.16337E-2
MEAN_MOTION_DDOT = 0

CCSDS_OMM_VERS = 2.0
CREATION_DATE  = 
ORIGINATOR     = 

OBJECT_NAME    = STARLINK-35909
OBJECT_ID      = 2025-263M
CENTER_NAME    = EARTH
REF_FRAME      = TEME
TIME_SYSTEM    = UTC
MEAN_ELEMENT_THEORY = SGP/SGP4

EPOCH          = 2025-11-30T20:00:03.000384
MEAN_MOTION    = 15.75021397
ECCENTRICITY   = .0001625
INCLINATION    = 42.9986
RA_OF_ASC_NODE = 195.7567
ARG_OF_PERICENTER = 287.6874
MEAN_ANOMALY   = 24.3423

EPHEMERIS_TYPE = 0
CLASSIFICATION_TYPE = U
NORAD_CAT_ID   = 66496
ELEMENT_SET_NO = 999
REV_AT_EPOCH   = 372
BSTAR          = -.23834E-3
MEAN_MOTION_DOT = -.36901E-3
MEAN_MOTION_DDOT = 0

CCSDS_OMM_VERS = 2.0
CREATION_DATE  = 
ORIGINATOR     = 

OBJECT_NAME    = STARLINK-35899
OBJECT_ID      = 2025-263N
CENTER_NAME    = EARTH
REF_FRAME      = TEME
TIME_SYSTEM    = UTC
MEAN_ELEMENT_THEORY = SGP/SGP4

EPOCH          = 2025-11-30T20:00:03.000384
MEAN_MOTION    = 15.75036772
ECCENTRICITY   = .0002062
INCLINATION    = 42.9986
RA_OF_ASC_NODE = 195.7510
ARG_OF_PERICENTER = 268.1151
MEAN_ANOMALY   = 45.8370

EPHEMERIS_TYPE = 0
CLASSIFICATION_TYPE = U
NORAD_CAT_ID   = 66497
ELEMENT_SET_NO = 999
REV_AT_EPOCH   = 372
BSTAR          = -.58235E-4
MEAN_MOTION_DOT = -.9413E-4
MEAN_MOTION_DDOT = 0

CCSDS_OMM_VERS = 2.0
CREATION_DATE  = 
ORIGINATOR     = 

OBJECT_NAME    = STARLINK-35907
OBJECT_ID      = 2025-263P
CENTER_NAME    = EARTH
REF_FRAME      = TEME
TIME_SYSTEM    = UTC
MEAN_ELEMENT_THEORY = SGP/SGP4

EPOCH          = 2025-11-30T20:00:03.000384
MEAN_MOTION    = 15.75062088
ECCENTRICITY   = .0001871
INCLINATION    = 42.9986
RA_OF_ASC_NODE = 195.7466
ARG_OF_PERICENTER = 260.6421
MEAN_ANOMALY   = 55.2275

EPHEMERIS_TYPE = 0
CLASSIFICATION_TYPE = U
NORAD_CAT_ID   = 66498
ELEMENT_SET_NO = 999
REV_AT_EPOCH   = 372
BSTAR          = -.37004E-3
MEAN_MOTION_DOT = -.56996E-3
MEAN_MOTION_DDOT = 0

CCSDS_OMM_VERS = 2.0
CREATION_DATE  = 
ORIGINATOR     = 

OBJECT_NAME    = STARLINK-35816
OBJECT_ID      = 2025-263Q
CENTER_NAME    = EARTH
REF_FRAME      = TEME
TIME_SYSTEM    = UTC
MEAN_ELEMENT_THEORY = SGP/SGP4

EPOCH          = 2025-11-30T20:00:03.000384
MEAN_MOTION    = 15.75072503
ECCENTRICITY   = .0001377
INCLINATION    = 42.9988
RA_OF_ASC_NODE = 195.7378
ARG_OF_PERICENTER = 267.4870
MEAN_ANOMALY   = 52.2141

EPHEMERIS_TYPE = 0
CLASSIFICATION_TYPE = U
NORAD_CAT_ID   = 66499
ELEMENT_SET_NO = 999
REV_AT_EPOCH   = 372
BSTAR          = -.49161E-3
MEAN_MOTION_DOT = -.7543E-3
MEAN_MOTION_DDOT = 0

CCSDS_OMM_VERS = 2.0
CREATION_DATE  = 
ORIGINATOR     = 

OBJECT_NAME    = STARLINK-35894
OBJECT_ID      = 2025-263R
CENTER_NAME    = EARTH
REF_FRAME      = TEME
TIME_SYSTEM    = UTC
MEAN_ELEMENT_THEORY = SGP/SGP4

EPOCH          = 2025-11-30T20:00:03.000384
MEAN_MOTION    = 15.74943037
ECCENTRICITY   = .000225
INCLINATION    = 42.9987
RA_OF_ASC_NODE = 195.7424
ARG_OF_PERICENTER = 268.3715
MEAN_ANOMALY   = 49.4261

EPHEMERIS_TYPE = 0
CLASSIFICATION_TYPE = U
NORAD_CAT_ID   = 66500
ELEMENT_SET_NO = 999
REV_AT_EPOCH   = 372
BSTAR          = .14317E-2
MEAN_MOTION_DOT = .224461E-2
MEAN_MOTION_DDOT = 0

CCSDS_OMM_VERS = 2.0
CREATION_DATE  = 
ORIGINATOR     = 

OBJECT_NAME    = STARLINK-35897
OBJECT_ID      = 2025-263S
CENTER_NAME    = EARTH
REF_FRAME      = TEME
TIME_SYSTEM    = UTC
MEAN_ELEMENT_THEORY = SGP/SGP4

EPOCH          = 2025-11-30T20:00:03.000384
MEAN_MOTION    = 15.75054977
ECCENTRICITY   = .0001365
INCLINATION    = 42.9985
RA_OF_ASC_NODE = 195.7319
ARG_OF_PERICENTER = 265.1123
MEAN_ANOMALY   = 56.5065

EPHEMERIS_TYPE = 0
CLASSIFICATION_TYPE = U
NORAD_CAT_ID   = 66501
ELEMENT_SET_NO = 999
REV_AT_EPOCH   = 372
BSTAR          = -.35381E-3
MEAN_MOTION_DOT = -.54513E-3
MEAN_MOTION_DDOT = 0

CCSDS_OMM_VERS = 2.0
CREATION_DATE  = 
ORIGINATOR     = 

OBJECT_NAME    = STARLINK-35922
OBJECT_ID      = 2025-263T
CENTER_NAME    = EARTH
REF_FRAME      = TEME
TIME_SYSTEM    = UTC
MEAN_ELEMENT_THEORY = SGP/SGP4

EPOCH          = 2025-11-30T20:00:03.000384
MEAN_MOTION    = 15.75093326
ECCENTRICITY   = .0002371
INCLINATION    = 42.9986
RA_OF_ASC_NODE = 195.7175
ARG_OF_PERICENTER = 274.0873
MEAN_ANOMALY   = 53.2372

EPHEMERIS_TYPE = 0
CLASSIFICATION_TYPE = U
NORAD_CAT_ID   = 66502
ELEMENT_SET_NO = 999
REV_AT_EPOCH   = 372
BSTAR          = -.4125E-3
MEAN_MOTION_DOT = -.63525E-3
MEAN_MOTION_DDOT = 0

CCSDS_OMM_VERS = 2.0
CREATION_DATE  = 
ORIGINATOR     = 

OBJECT_NAME    = STARLINK-35917
OBJECT_ID      = 2025-263U
CENTER_NAME    = EARTH
REF_FRAME      = TEME
TIME_SYSTEM    = UTC
MEAN_ELEMENT_THEORY = SGP/SGP4

EPOCH          = 2025-11-30T14:00:01.999872
MEAN_MOTION    = 15.74998824
ECCENTRICITY   = .00017482
INCLINATION    = 42.9989
RA_OF_ASC_NODE = 197.2208
ARG_OF_PERICENTER = 257.0716
MEAN_ANOMALY   = 94.8158

EPHEMERIS_TYPE = 0
CLASSIFICATION_TYPE = U
NORAD_CAT_ID   = 66503
ELEMENT_SET_NO = 999
REV_AT_EPOCH   = 368
BSTAR          = .45667175E-3
MEAN_MOTION_DOT = .70133E-3
MEAN_MOTION_DDOT = 0

CCSDS_OMM_VERS = 2.0
CREATION_DATE  = 
ORIGINATOR     = 

OBJECT_NAME    = STARLINK-35916
OBJECT_ID      = 2025-263V
CENTER_NAME    = EARTH
REF_FRAME      = TEME
TIME_SYSTEM    = UTC
MEAN_ELEMENT_THEORY = SGP/SGP4

EPOCH          = 2025-11-30T20:00:03.000384
MEAN_MOTION    = 15.66949419
ECCENTRICITY   = .000139
INCLINATION    = 42.9992
RA_OF_ASC_NODE = 195.8778
ARG_OF_PERICENTER = 256.5803
MEAN_ANOMALY   = 6.3307

EPHEMERIS_TYPE = 0
CLASSIFICATION_TYPE = U
NORAD_CAT_ID   = 66504
ELEMENT_SET_NO = 999
REV_AT_EPOCH   = 372
BSTAR          = -.26211E-1
MEAN_MOTION_DOT = -.2499534E-1
MEAN_MOTION_DDOT = 0

CCSDS_OMM_VERS = 2.0
CREATION_DATE  = 
ORIGINATOR     = 

OBJECT_NAME    = STARLINK-34766
OBJECT_ID      = 2025-263W
CENTER_NAME    = EARTH
REF_FRAME      = TEME
TIME_SYSTEM    = UTC
MEAN_ELEMENT_THEORY = SGP/SGP4

EPOCH          = 2025-11-30T20:00:03.000384
MEAN_MOTION    = 15.75040727
ECCENTRICITY   = .0002001
INCLINATION    = 42.9986
RA_OF_ASC_NODE = 195.7266
ARG_OF_PERICENTER = 268.5741
MEAN_ANOMALY   = 54.9601

EPHEMERIS_TYPE = 0
CLASSIFICATION_TYPE = U
NORAD_CAT_ID   = 66505
ELEMENT_SET_NO = 999
REV_AT_EPOCH   = 372
BSTAR          = -.55061E-4
MEAN_MOTION_DOT = -.8928E-4
MEAN_MOTION_DDOT = 0

CCSDS_OMM_VERS = 2.0
CREATION_DATE  = 
ORIGINATOR     = 

OBJECT_NAME    = STARLINK-34765
OBJECT_ID      = 2025-263X
CENTER_NAME    = EARTH
REF_FRAME      = TEME
TIME_SYSTEM    = UTC
MEAN_ELEMENT_THEORY = SGP/SGP4

EPOCH          = 2025-11-30T20:00:03.000384
MEAN_MOTION    = 15.75030326
ECCENTRICITY   = .0001674
INCLINATION    = 42.9986
RA_OF_ASC_NODE = 195.7223
ARG_OF_PERICENTER = 265.0233
MEAN_ANOMALY   = 60.4359

EPHEMERIS_TYPE = 0
CLASSIFICATION_TYPE = U
NORAD_CAT_ID   = 66506
ELEMENT_SET_NO = 999
REV_AT_EPOCH   = 372
BSTAR          = .90968E-5
MEAN_MOTION_DOT = .919E-5
MEAN_MOTION_DDOT = 0

