STARLINK-35832          
1 66495U 25263L   25334.83336806 -.00163370  00000+0 -10761-2 0  9990
2 66495  42.9986 195.7614 0001588 277.8968  32.1658 15.75144154  3726
STARLINK-35909          
1 66496U 25263M   25334.83336806 -.00036901  00000+0 -23834-3 0  9996
2 66496  42.9986 195.7567 0001625 287.6874  24.3423 15.75021397  3727
STARLINK-35899          
1 66497U 25263N   25334.83336806 -.00009413  00000+0 -58235-4 0  9999
2 66497  42.9986 195.7510 0002062 268.1151  45.8370 15.75036772  3726
STARLINK-35907          
1 66498U 25263P   25334.83336806 -.00056996  00000+0 -37004-3 0  9998
2 66498  42.9986 195.7466 0001871 260.6421  55.2275 15.75062088  3729
STARLINK-35816          
1 66499U 25263Q   25334.83336806 -.00075430  00000+0 -49161-3 0  9990
2 66499  42.9988 195.7378 0001377 267.4870  52.2141 15.75072503  3720
STARLINK-35894          
1 66500U 25263R   25334.83336806  .00224461  00000+0  14317-2 0  9995
2 66500  42.9987 195.7424 0002250 268.3715  49.4261 15.74943037  3722
STARLINK-35897          
1 66501U 25263S   25334.83336806 -.00054513  00000+0 -35381-3 0  9992
2 66501  42.9985 195.7319 0001365 265.1123  56.5065 15.75054977  3726
STARLINK-35922          
1 66502U 25263T   25334.83336806 -.00063525  00000+0 -41250-3 0  9998
2 66502  42.9986 195.7175 0002371 274.0873  53.2372 15.75093326  3723
STARLINK-35917          
1 66503U 25263U   25334.58335648  .00070133  00000+0  45667-3 0  9991
2 66503  42.9989 197.2208 0001748 257.0716  94.8158 15.74998824  3689
STARLINK-35916          
1 66504U 25263V   25334.83336806 -.02499534  00000+0 -26211-1 0  9993
2 66504  42.9992 195.8778 0001390 256.5803   6.3307 15.66949419  3720
STARLINK-34766          
1 66505U 25263W   25334.83336806 -.00008928  00000+0 -55061-4 0  9993
2 66505  42.9986 195.7266 0002001 268.5741  54.9601 15.75040727  3729
STARLINK-34765          
1 66506U 25263X   25334.83336806  .00000919  00000+0  90968-5 0  9990
2 66506  42.9986 195.7223 0001674 265.0233  60.4359 15.75030326  3722
